start=new Date('2022-04-30T00:00:00.000Z').valueOf();
sats=[{"LAUNCH_DATE":"2022-02-21","OBJECT_NAME":"STARLINK-3516","MEAN_ELEMENT_THEORY":"SGP4","CLASSIFICATION_TYPE":"U","ARG_OF_PERICENTER":"37.8651","PERIAPSIS":"457.644","SEMIMAJOR_AXIS":"6837.037","GP_ID":"202313490","MEAN_ANOMALY":"136.0240","ELEMENT_SET_NO":"999","REV_AT_EPOCH":"366","EPHEMERIS_TYPE":"0","TIME_SYSTEM":"UTC","RA_OF_ASC_NODE":"169.5849","OBJECT_TYPE":"PAYLOAD","INCLINATION":"53.2174","MEAN_MOTION":"15.35680548","DECAY_DATE":null,"NORAD_CAT_ID":"51739","RCS_SIZE":"LARGE","CENTER_NAME":"EARTH","APOAPSIS":"460.160","TLE_LINE1":"1 51739U 22016AB  22119.91667824 -.00715526  00000-0 -22003-1 0  9990","MEAN_MOTION_DOT":"-0.00715526","OBJECT_ID":"2022-016AB","COUNTRY_CODE":"US","ECCENTRICITY":"0.00018400","REF_FRAME":"TEME","BSTAR":"-0.02200300000000","EPOCH":"2022-04-29T22:00:00.999936","FILE":"3421985","PERIOD":"93.770","TLE_LINE2":"2 51739  53.2174 169.5849 0001840  37.8651 136.0240 15.35680548  3660","SITE":"AFETR","MEAN_MOTION_DDOT":"0.0000000000000"},{"OBJECT_ID":"2022-016AC","COUNTRY_CODE":"US","ECCENTRICITY":"0.00018620","REF_FRAME":"TEME","BSTAR":"-0.02159000000000","EPOCH":"2022-04-29T22:00:00.999936","FILE":"3421985","PERIOD":"93.731","TLE_LINE2":"2 51740  53.2176 169.5837 0001862  37.3450 195.9657 15.36316076  3688","SITE":"AFETR","MEAN_MOTION_DDOT":"0.0000000000000","INCLINATION":"53.2176","MEAN_MOTION":"15.36316076","DECAY_DATE":null,"NORAD_CAT_ID":"51740","RCS_SIZE":"LARGE","CENTER_NAME":"EARTH","APOAPSIS":"458.289","TLE_LINE1":"1 51740U 22016AC  22119.91667824 -.00716582  00000-0 -21590-1 0  9995","MEAN_MOTION_DOT":"-0.00716582","MEAN_ANOMALY":"195.9657","ELEMENT_SET_NO":"999","REV_AT_EPOCH":"368","EPHEMERIS_TYPE":"0","TIME_SYSTEM":"UTC","RA_OF_ASC_NODE":"169.5837","OBJECT_TYPE":"PAYLOAD","OBJECT_NAME":"STARLINK-3500","LAUNCH_DATE":"2022-02-21","MEAN_ELEMENT_THEORY":"SGP4","CLASSIFICATION_TYPE":"U","ARG_OF_PERICENTER":"37.3450","PERIAPSIS":"455.743","SEMIMAJOR_AXIS":"6835.151","GP_ID":"202313655"},{"COUNTRY_CODE":"US","OBJECT_ID":"2022-016AD","REF_FRAME":"TEME","ECCENTRICITY":"0.00017720","EPOCH":"2022-04-29T22:00:00.999936","BSTAR":"-0.02183100000000","FILE":"3421985","SITE":"AFETR","TLE_LINE2":"2 51741  53.2174 169.5848 0001772  41.4016 156.2624 15.35936374  3685","PERIOD":"93.754","MEAN_MOTION_DDOT":"0.0000000000000","INCLINATION":"53.2174","MEAN_MOTION":"15.35936374","DECAY_DATE":null,"NORAD_CAT_ID":"51741","CENTER_NAME":"EARTH","RCS_SIZE":"MEDIUM","APOAPSIS":"459.354","MEAN_MOTION_DOT":"-0.00715787","TLE_LINE1":"1 51741U 22016AD  22119.91667824 -.00715787  00000-0 -21831-1 0  9990","MEAN_ANOMALY":"156.2624","ELEMENT_SET_NO":"999","REV_AT_EPOCH":"368","TIME_SYSTEM":"UTC","EPHEMERIS_TYPE":"0","RA_OF_ASC_NODE":"169.5848","OBJECT_TYPE":"PAYLOAD","MEAN_ELEMENT_THEORY":"SGP4","LAUNCH_DATE":"2022-02-21","OBJECT_NAME":"STARLINK-3520","CLASSIFICATION_TYPE":"U","ARG_OF_PERICENTER":"41.4016","PERIAPSIS":"456.931","SEMIMAJOR_AXIS":"6836.278","GP_ID":"202313085"},{"MEAN_ANOMALY":"203.1607","ELEMENT_SET_NO":"999","REV_AT_EPOCH":"366","EPHEMERIS_TYPE":"0","TIME_SYSTEM":"UTC","RA_OF_ASC_NODE":"169.5833","OBJECT_TYPE":"PAYLOAD","MEAN_ELEMENT_THEORY":"SGP4","LAUNCH_DATE":"2022-02-21","OBJECT_NAME":"STARLINK-3521","CLASSIFICATION_TYPE":"U","ARG_OF_PERICENTER":"41.8659","PERIAPSIS":"455.462","GP_ID":"202313250","SEMIMAJOR_AXIS":"6834.772","COUNTRY_CODE":"US","OBJECT_ID":"2022-016AE","REF_FRAME":"TEME","ECCENTRICITY":"0.00017190","BSTAR":"-0.02151400000000","EPOCH":"2022-04-29T22:00:00.999936","FILE":"3421985","SITE":"AFETR","TLE_LINE2":"2 51742  53.2176 169.5833 0001719  41.8659 203.1607 15.36444088  3668","PERIOD":"93.723","MEAN_MOTION_DDOT":"0.0000000000000","INCLINATION":"53.2176","MEAN_MOTION":"15.36444088","DECAY_DATE":null,"NORAD_CAT_ID":"51742","CENTER_NAME":"EARTH","RCS_SIZE":"LARGE","APOAPSIS":"457.811","MEAN_MOTION_DOT":"-0.00716973","TLE_LINE1":"1 51742U 22016AE  22119.91667824 -.00716973  00000-0 -21514-1 0  9997"},{"BSTAR":"-0.00755560000000","EPOCH":"2022-04-29T22:00:00.999936","REF_FRAME":"TEME","ECCENTRICITY":"0.00011360","COUNTRY_CODE":"US","OBJECT_ID":"2022-016AF","MEAN_MOTION_DDOT":"0.0000000000000","TLE_LINE2":"2 51743  53.2176 166.4823 0001136  59.5210 271.2945 15.65806828  3708","SITE":"AFETR","PERIOD":"91.965","FILE":"3421985","DECAY_DATE":null,"NORAD_CAT_ID":"51743","MEAN_MOTION":"15.65806828","INCLINATION":"53.2176","MEAN_MOTION_DOT":"-0.00716347","TLE_LINE1":"1 51743U 22016AF  22119.91667824 -.00716347  00000-0 -75556-2 0  9999","APOAPSIS":"371.688","CENTER_NAME":"EARTH","RCS_SIZE":"LARGE","TIME_SYSTEM":"UTC","EPHEMERIS_TYPE":"0","REV_AT_EPOCH":"370","ELEMENT_SET_NO":"999","MEAN_ANOMALY":"271.2945","RA_OF_ASC_NODE":"166.4823","OBJECT_TYPE":"PAYLOAD","CLASSIFICATION_TYPE":"U","MEAN_ELEMENT_THEORY":"SGP4","OBJECT_NAME":"STARLINK-3512","LAUNCH_DATE":"2022-02-21","SEMIMAJOR_AXIS":"6749.056","GP_ID":"202313168","PERIAPSIS":"370.155","ARG_OF_PERICENTER":"59.5210"},{"RA_OF_ASC_NODE":"169.5824","OBJECT_TYPE":"PAYLOAD","REV_AT_EPOCH":"368","EPHEMERIS_TYPE":"0","TIME_SYSTEM":"UTC","MEAN_ANOMALY":"225.1004","ELEMENT_SET_NO":"999","SEMIMAJOR_AXIS":"6834.115","GP_ID":"202313332","ARG_OF_PERICENTER":"40.2920","PERIAPSIS":"454.801","OBJECT_NAME":"STARLINK-3452","LAUNCH_DATE":"2022-02-21","MEAN_ELEMENT_THEORY":"SGP4","CLASSIFICATION_TYPE":"U","PERIOD":"93.709","SITE":"AFETR","TLE_LINE2":"2 51744  53.2176 169.5824 0001724  40.2920 225.1004 15.36665621  3685","MEAN_MOTION_DDOT":"0.0000000000000","FILE":"3421985","ECCENTRICITY":"0.00017240","REF_FRAME":"TEME","BSTAR":"-0.02137200000000","EPOCH":"2022-04-29T22:00:00.999936","OBJECT_ID":"2022-016AG","COUNTRY_CODE":"US","TLE_LINE1":"1 51744U 22016AG  22119.91667824 -.00717347  00000-0 -21372-1 0  9997","MEAN_MOTION_DOT":"-0.00717347","RCS_SIZE":"LARGE","CENTER_NAME":"EARTH","APOAPSIS":"457.158","NORAD_CAT_ID":"51744","DECAY_DATE":null,"INCLINATION":"53.2176","MEAN_MOTION":"15.36665621"},{"MEAN_MOTION_DOT":"-0.00716280","TLE_LINE1":"1 51745U 22016AH  22119.91667824 -.00716280  00000-0 -21670-1 0  9994","CENTER_NAME":"EARTH","RCS_SIZE":"LARGE","APOAPSIS":"458.632","DECAY_DATE":null,"NORAD_CAT_ID":"51745","INCLINATION":"53.2175","MEAN_MOTION":"15.36188095","TLE_LINE2":"2 51745  53.2175 169.5839 0001809  39.4842 182.0722 15.36188095  3681","SITE":"AFETR","PERIOD":"93.739","MEAN_MOTION_DDOT":"0.0000000000000","FILE":"3421985","REF_FRAME":"TEME","ECCENTRICITY":"0.00018090","EPOCH":"2022-04-29T22:00:00.999936","BSTAR":"-0.02167000000000","COUNTRY_CODE":"US","OBJECT_ID":"2022-016AH","SEMIMAJOR_AXIS":"6835.531","GP_ID":"202313408","ARG_OF_PERICENTER":"39.4842","PERIAPSIS":"456.159","MEAN_ELEMENT_THEORY":"SGP4","LAUNCH_DATE":"2022-02-21","OBJECT_NAME":"STARLINK-3449","CLASSIFICATION_TYPE":"U","OBJECT_TYPE":"PAYLOAD","RA_OF_ASC_NODE":"169.5839","REV_AT_EPOCH":"368","EPHEMERIS_TYPE":"0","TIME_SYSTEM":"UTC","MEAN_ANOMALY":"182.0722","ELEMENT_SET_NO":"999"},{"MEAN_MOTION":"15.65785788","INCLINATION":"53.2176","DECAY_DATE":null,"NORAD_CAT_ID":"51746","APOAPSIS":"371.697","CENTER_NAME":"EARTH","RCS_SIZE":"LARGE","MEAN_MOTION_DOT":"-0.00716130","TLE_LINE1":"1 51746U 22016AJ  22119.91667824 -.00716130  00000-0 -75597-2 0  9997","COUNTRY_CODE":"US","OBJECT_ID":"2022-016AJ","EPOCH":"2022-04-29T22:00:00.999936","BSTAR":"-0.00755970000000","REF_FRAME":"TEME","ECCENTRICITY":"0.00010600","FILE":"3421985","MEAN_MOTION_DDOT":"0.0000000000000","SITE":"AFETR","TLE_LINE2":"2 51746  53.2176 166.4791 0001060  72.4289 262.4870 15.65785788  3701","PERIOD":"91.967","CLASSIFICATION_TYPE":"U","MEAN_ELEMENT_THEORY":"SGP4","OBJECT_NAME":"STARLINK-3502","LAUNCH_DATE":"2022-02-21","PERIAPSIS":"370.266","ARG_OF_PERICENTER":"72.4289","GP_ID":"202313573","SEMIMAJOR_AXIS":"6749.117","ELEMENT_SET_NO":"999","MEAN_ANOMALY":"262.4870","EPHEMERIS_TYPE":"0","TIME_SYSTEM":"UTC","REV_AT_EPOCH":"370","RA_OF_ASC_NODE":"166.4791","OBJECT_TYPE":"PAYLOAD"},{"CLASSIFICATION_TYPE":"U","MEAN_ELEMENT_THEORY":"SGP4","LAUNCH_DATE":"2022-02-21","OBJECT_NAME":"STARLINK-3446","PERIAPSIS":"455.084","ARG_OF_PERICENTER":"40.9636","GP_ID":"202313491","SEMIMAJOR_AXIS":"6834.392","ELEMENT_SET_NO":"999","MEAN_ANOMALY":"215.7404","TIME_SYSTEM":"UTC","EPHEMERIS_TYPE":"0","REV_AT_EPOCH":"368","OBJECT_TYPE":"PAYLOAD","RA_OF_ASC_NODE":"169.5828","MEAN_MOTION":"15.36572068","INCLINATION":"53.2176","DECAY_DATE":null,"NORAD_CAT_ID":"51747","APOAPSIS":"457.430","CENTER_NAME":"EARTH","RCS_SIZE":"LARGE","MEAN_MOTION_DOT":"-0.00717223","TLE_LINE1":"1 51747U 22016AK  22119.91667824 -.00717223  00000-0 -21433-1 0  9991","COUNTRY_CODE":"US","OBJECT_ID":"2022-016AK","EPOCH":"2022-04-29T22:00:00.999936","BSTAR":"-0.02143300000000","REF_FRAME":"TEME","ECCENTRICITY":"0.00017170","FILE":"3421985","MEAN_MOTION_DDOT":"0.0000000000000","TLE_LINE2":"2 51747  53.2176 169.5828 0001717  40.9636 215.7404 15.36572068  3686","SITE":"AFETR","PERIOD":"93.715"},{"PERIAPSIS":"370.246","ARG_OF_PERICENTER":"75.0176","SEMIMAJOR_AXIS":"6749.092","GP_ID":"202313656","CLASSIFICATION_TYPE":"U","LAUNCH_DATE":"2022-02-21","OBJECT_NAME":"STARLINK-3501","MEAN_ELEMENT_THEORY":"SGP4","RA_OF_ASC_NODE":"166.4859","OBJECT_TYPE":"PAYLOAD","ELEMENT_SET_NO":"999","MEAN_ANOMALY":"261.3216","TIME_SYSTEM":"UTC","EPHEMERIS_TYPE":"0","REV_AT_EPOCH":"370","APOAPSIS":"371.667","CENTER_NAME":"EARTH","RCS_SIZE":"LARGE","TLE_LINE1":"1 51748U 22016AL  22119.91667824 -.00716081  00000-0 -75565-2 0  9999","MEAN_MOTION_DOT":"-0.00716081","MEAN_MOTION":"15.65794507","INCLINATION":"53.2176","DECAY_DATE":null,"NORAD_CAT_ID":"51748","FILE":"3421985","MEAN_MOTION_DDOT":"0.0000000000000","PERIOD":"91.966","SITE":"AFETR","TLE_LINE2":"2 51748  53.2176 166.4859 0001053  75.0176 261.3216 15.65794507  3705","OBJECT_ID":"2022-016AL","COUNTRY_CODE":"US","EPOCH":"2022-04-29T22:00:00.999936","BSTAR":"-0.00755650000000","ECCENTRICITY":"0.00010530","REF_FRAME":"TEME"}];
